BEESAT-4                
1 41619U 16040W   21288.66705460  .00004342  00000-0  17014-3 0  9996
2 41619  97.2565 341.3499 0008703 264.7299  95.2947 15.26263655283344
CAS-2T & KS-1Q          
1 41847U 16066G   21288.76203618  .00000322  00000-0  59264-4 0  9994
2 41847  98.5879 348.3136 0364359 221.0706 136.2525 14.38252954259179
NAYIF-1 (EO-88)         
1 42017U 17008BX  21288.68727079  .00005069  00000-0  18240-3 0  9995
2 42017  97.3043 354.1128 0006976  53.4070 306.7812 15.29022614259626
ZHUHAI-1 02 (CAS-4B)    
1 42759U 17034B   21288.85033215  .00001722  00000-0  11606-3 0  9999
2 42759  43.0171 239.0835 0007863 206.5300 198.0174 15.10448839239350
ZHUHAI-1 01 (CAS-4A)    
1 42761U 17034D   21288.89911072  .00001617  00000-0  10953-3 0  9999
2 42761  43.0173 237.7838 0008655 208.9043 188.4001 15.10534932239366
MAX VALIER SAT          
1 42778U 17036P   21288.67075639  .00002999  00000-0  12605-3 0  9995
2 42778  97.2427 333.2866 0013454 110.1282 250.1405 15.24091110239593
RADFXSAT (FOX-1B)       
1 43017U 17073E   21288.70409508  .00001566  00000-0  12610-3 0  9998
2 43017  97.6930 187.8581 0252389 267.9583  89.2711 14.79850959210905
FOX-1D (AO-92)          
1 43137U 18004AC  21288.76424720  .00003587  00000-0  14298-3 0  9994
2 43137  97.3971   1.5378 0009725 139.3932 220.8033 15.25814487209007
DIWATA-2B               
1 43678U 18084H   21288.85385197  .00000647  00000-0  69832-4 0  9995
2 43678  97.9390  54.8637 0010256  22.2015 337.9674 14.91810372161380
ES'HAIL 2               
1 43700U 18090A   21288.64534484  .00000126  00000-0  00000-0 0  9990
2 43700   0.0162 170.2762 0002335  54.4888  57.7488  1.00273028 10575
FOX-1CLIFF (AO-95)      
1 43770U 18099N   21288.76065578  .00000665  00000-0  65079-4 0  9991
2 43770  97.6539 356.2278 0014930  21.2056 338.9780 14.95478031156437
ITASAT 1                
1 43786U 18099AE  21288.72386313  .00000786  00000-0  75544-4 0  9999
2 43786  97.6557 356.9536 0015234  13.9124 346.2514 14.95748167156460
JY1SAT (JO-97)          
1 43803U 18099AX  21288.73369721  .00001324  00000-0  12287-3 0  9997
2 43803  97.6519 356.7032 0015110  14.1412 346.0229 14.96027407156473
UWE-4                   
1 43880U 18111E   21288.70329780  .00001277  00000-0  11573-3 0  9999
2 43880  97.6771 194.3276 0013912  64.0999 296.1655 14.97043661153078
NEXUS (FO-99)           
1 43937U 19003F   21288.64562624  .00004143  00000-0  16084-3 0  9999
2 43937  97.1652 326.9766 0021180 308.7985  51.1362 15.26417293152599
PSAT2 (NO-104)          
1 44354U 19036R   21288.61704809  .00034284  00000-0  43277-3 0  9992
2 44354  28.5269  43.5089 0309331 142.6267 219.6271 15.17807328127224
BRICSAT2 (NO-103)       
1 44355U 19036S   21288.48484276  .00081368 -50526-5  75195-3 0  9994
2 44355  28.5279 336.7222 0225452 251.2020 106.3998 15.39987933127882
JAISAT-1                
1 44419U 19038F   21288.79656901  .00003061  00000-0  17056-3 0  9999
2 44419  97.6027 253.1743 0019047 256.4731 103.4378 15.14237248126001
DUCHIFAT-3              
1 44854U 19089C   21288.84632806  .00001310  00000-0  11052-3 0  9997
2 44854  36.9656 108.5621 0008449  24.7490 335.3677 14.99696211101189
CAS-6 (TO-108)          
1 44881U 19093C   21288.75884047  .00000215  00000-0  34141-4 0  9996
2 44881  97.9160   6.2315 0013646 261.8337  98.1322 14.81492776 98546
RS-44 & BREEZE-KM R/B   
1 44909U 19096E   21288.71530238  .00000004  00000-0 -32845-4 0  9992
2 44909  82.5260  32.8923 0217743 171.6896 188.7908 12.79711289 84202
ORBITAL FACTORY 2 (OF-2)
1 45113U 19071C   21288.42348686  .00008097  00000-0  23041-3 0  9991
2 45113  51.6412 175.3885 0011216  11.5539 348.5700 15.36983077 95614
HUSKYSAT-1 (HO-107)     
1 45119U 19071J   21288.69587910  .00007601  00000-0  21747-3 0  9992
2 45119  51.6402 173.4485 0010634   9.1053 351.0121 15.36914907 95657
BY70-2                  
1 45857U 20042B   21288.74235241  .00002459  00000-0  35250-3 0  9994
2 45857  97.9768   3.2260 0011477 178.7537 181.3699 14.77400928 69305
SALSAT                  
1 46495U 20068K   21288.85404368  .00000800  00000-0  62899-4 0  9999
2 46495  97.6987 225.6825 0018008  27.3845 332.8326 15.03587003 57429
BY70-3                  
1 46839U 20079N   21288.85779113  .00008854  00000-0  26474-3 0  9991
2 46839  97.2297   0.3317 0008543 127.3771 344.3106 15.34762652 52661
RADFXSAT-2 (AO-109)     
1 47311U 21002C   21288.78525320  .00002878  00000-0  13385-3 0  9992
2 47311  60.6853 200.5892 0040134 109.0928 251.4511 15.22162885 41186
UVSQ-SAT                
1 47438U 21006AB  21288.65979190  .00002300  00000-0  13192-3 0  9996
2 47438  97.4747 347.6689 0013712  48.4611 311.7794 15.13480392 40234
DIY-1 (ARDUIQUBE)       
1 47963U 21022AH  21288.69800492  .00004185  00000-0  27522-3 0  9994
2 47963  97.5456 188.8746 0017462 253.7106 106.2201 15.08002297 30013
